[{"OBJECT_NAME":"JINJUSAT-1B","OBJECT_ID":"2025-052A","EPOCH":"2026-03-09T15:55:38.242848","MEAN_MOTION":15.30194857,"ECCENTRICITY":0.00055504,"INCLINATION":97.4113,"RA_OF_ASC_NODE":325.4613,"ARG_OF_PERICENTER":82.193,"MEAN_ANOMALY":277.9941,"EPHEMERIS_TYPE":0,"CLASSIFICATION_TYPE":"U","NORAD_CAT_ID":63210,"ELEMENT_SET_NO":999,"REV_AT_EPOCH":5486,"BSTAR":0.00068430401,"MEAN_MOTION_DOT":0.00019955,"MEAN_MOTION_DDOT":0},{"OBJECT_NAME":"STARLINK-35790","OBJECT_ID":"2025-294AB","EPOCH":"2026-03-09T06:34:44.257440","MEAN_MOTION":15.27597489,"ECCENTRICITY":0.00010936,"INCLINATION":43.0018,"RA_OF_ASC_NODE":40.5866,"ARG_OF_PERICENTER":244.0498,"MEAN_ANOMALY":116.0241,"EPHEMERIS_TYPE":0,"CLASSIFICATION_TYPE":"U","NORAD_CAT_ID":67055,"ELEMENT_SET_NO":999,"REV_AT_EPOCH":1473,"BSTAR":0.00089206523,"MEAN_MOTION_DOT":0.0002438,"MEAN_MOTION_DDOT":0}]
