JINJUSAT-1B             
1 63210U 25052A   26068.66363707  .00019955  00000+0  68430-3 0  9998
2 63210  97.4113 325.4613 0005550  82.1930 277.9941 15.30194857 54866
STARLINK-35790          
1 67055U 25294AB  26068.27412335  .00024380  00000+0  89207-3 0  9999
2 67055  43.0018  40.5866 0001093 244.0498 116.0241 15.27597489 14731
